[{"OBJECT_NAME":"KUIPER-00127","OBJECT_ID":"2025-228K","EPOCH":"2026-02-01T13:32:41.327808","MEAN_MOTION":14.98386021,"ECCENTRICITY":0.00047243,"INCLINATION":51.8951,"RA_OF_ASC_NODE":152.4684,"ARG_OF_PERICENTER":234.9008,"MEAN_ANOMALY":125.152,"EPHEMERIS_TYPE":0,"CLASSIFICATION_TYPE":"U","NORAD_CAT_ID":65956,"ELEMENT_SET_NO":999,"REV_AT_EPOCH":1799,"BSTAR":0.00057424553,"MEAN_MOTION_DOT":6.668e-5,"MEAN_MOTION_DDOT":0},{"OBJECT_NAME":"KUIPER-00128","OBJECT_ID":"2025-228L","EPOCH":"2026-02-01T17:02:17.187360","MEAN_MOTION":14.79927651,"ECCENTRICITY":6.478e-5,"INCLINATION":51.9006,"RA_OF_ASC_NODE":152.2192,"ARG_OF_PERICENTER":67.3255,"MEAN_ANOMALY":292.7776,"EPHEMERIS_TYPE":0,"CLASSIFICATION_TYPE":"U","NORAD_CAT_ID":65957,"ELEMENT_SET_NO":999,"REV_AT_EPOCH":1800,"BSTAR":-0.00012933694,"MEAN_MOTION_DOT":-1.207e-5,"MEAN_MOTION_DDOT":0},{"OBJECT_NAME":"KUIPER-00129","OBJECT_ID":"2025-228M","EPOCH":"2026-02-01T16:21:31.741632","MEAN_MOTION":14.79958427,"ECCENTRICITY":7.408e-5,"INCLINATION":51.8999,"RA_OF_ASC_NODE":147.329,"ARG_OF_PERICENTER":104.4146,"MEAN_ANOMALY":255.6898,"EPHEMERIS_TYPE":0,"CLASSIFICATION_TYPE":"U","NORAD_CAT_ID":65958,"ELEMENT_SET_NO":999,"REV_AT_EPOCH":1807,"BSTAR":0.00065360673,"MEAN_MOTION_DOT":4.768e-5,"MEAN_MOTION_DDOT":0},{"OBJECT_NAME":"KUIPER-00130","OBJECT_ID":"2025-228N","EPOCH":"2026-02-01T13:51:51.433632","MEAN_MOTION":14.79893259,"ECCENTRICITY":4.723e-5,"INCLINATION":51.9021,"RA_OF_ASC_NODE":150.2892,"ARG_OF_PERICENTER":47.4931,"MEAN_ANOMALY":312.6071,"EPHEMERIS_TYPE":0,"CLASSIFICATION_TYPE":"U","NORAD_CAT_ID":65959,"ELEMENT_SET_NO":999,"REV_AT_EPOCH":831,"BSTAR":0.0006258582,"MEAN_MOTION_DOT":4.549e-5,"MEAN_MOTION_DDOT":0},{"OBJECT_NAME":"KUIPER-00134","OBJECT_ID":"2025-228P","EPOCH":"2026-02-01T15:38:25.121760","MEAN_MOTION":15.37331121,"ECCENTRICITY":0.0005582,"INCLINATION":51.8766,"RA_OF_ASC_NODE":134.7803,"ARG_OF_PERICENTER":193.0429,"MEAN_ANOMALY":167.0415,"EPHEMERIS_TYPE":0,"CLASSIFICATION_TYPE":"U","NORAD_CAT_ID":65960,"ELEMENT_SET_NO":999,"REV_AT_EPOCH":1824,"BSTAR":0.0010518641,"MEAN_MOTION_DOT":0.00038908,"MEAN_MOTION_DDOT":0},{"OBJECT_NAME":"KUIPER-00135","OBJECT_ID":"2025-228Q","EPOCH":"2026-02-01T17:54:48.113280","MEAN_MOTION":14.79936872,"ECCENTRICITY":4.307e-5,"INCLINATION":51.904,"RA_OF_ASC_NODE":149.6095,"ARG_OF_PERICENTER":53.1395,"MEAN_ANOMALY":306.9607,"EPHEMERIS_TYPE":0,"CLASSIFICATION_TYPE":"U","NORAD_CAT_ID":65961,"ELEMENT_SET_NO":999,"REV_AT_EPOCH":1804,"BSTAR":-7.0746679e-5,"MEAN_MOTION_DOT":-7.6e-6,"MEAN_MOTION_DDOT":0},{"OBJECT_NAME":"KUIPER-00136","OBJECT_ID":"2025-228R","EPOCH":"2026-02-01T13:55:38.210304","MEAN_MOTION":14.79976794,"ECCENTRICITY":5.718e-5,"INCLINATION":51.9007,"RA_OF_ASC_NODE":147.8201,"ARG_OF_PERICENTER":291.8136,"MEAN_ANOMALY":68.2765,"EPHEMERIS_TYPE":0,"CLASSIFICATION_TYPE":"U","NORAD_CAT_ID":65962,"ELEMENT_SET_NO":999,"REV_AT_EPOCH":1805,"BSTAR":0.00057982725,"MEAN_MOTION_DOT":4.206e-5,"MEAN_MOTION_DDOT":0},{"OBJECT_NAME":"KUIPER-00137","OBJECT_ID":"2025-228S","EPOCH":"2026-01-30T18:10:03.373536","MEAN_MOTION":14.83727911,"ECCENTRICITY":0.00024361,"INCLINATION":51.9029,"RA_OF_ASC_NODE":153.3077,"ARG_OF_PERICENTER":218.4318,"MEAN_ANOMALY":141.6473,"EPHEMERIS_TYPE":0,"CLASSIFICATION_TYPE":"U","NORAD_CAT_ID":65963,"ELEMENT_SET_NO":999,"REV_AT_EPOCH":1782,"BSTAR":0.00060900656,"MEAN_MOTION_DOT":4.86e-5,"MEAN_MOTION_DDOT":0},{"OBJECT_NAME":"KUIPER-00138","OBJECT_ID":"2025-228T","EPOCH":"2026-02-01T22:00:01.999584","MEAN_MOTION":14.82925623,"ECCENTRICITY":0.00025512,"INCLINATION":51.8985,"RA_OF_ASC_NODE":141.352,"ARG_OF_PERICENTER":231.8353,"MEAN_ANOMALY":239.4038,"EPHEMERIS_TYPE":0,"CLASSIFICATION_TYPE":"U","NORAD_CAT_ID":65964,"ELEMENT_SET_NO":999,"REV_AT_EPOCH":562,"BSTAR":-0.0057034804,"MEAN_MOTION_DOT":-0.00046622,"MEAN_MOTION_DDOT":0},{"OBJECT_NAME":"KUIPER-00140","OBJECT_ID":"2025-228U","EPOCH":"2026-02-01T22:00:01.999584","MEAN_MOTION":14.80210107,"ECCENTRICITY":7.539e-5,"INCLINATION":51.8987,"RA_OF_ASC_NODE":143.8684,"ARG_OF_PERICENTER":325.9644,"MEAN_ANOMALY":192.2419,"EPHEMERIS_TYPE":0,"CLASSIFICATION_TYPE":"U","NORAD_CAT_ID":65965,"ELEMENT_SET_NO":999,"REV_AT_EPOCH":562,"BSTAR":-0.0064309145,"MEAN_MOTION_DOT":-0.00049212,"MEAN_MOTION_DDOT":0},{"OBJECT_NAME":"KUIPER-00141","OBJECT_ID":"2025-228V","EPOCH":"2026-02-01T22:00:01.999584","MEAN_MOTION":14.87325766,"ECCENTRICITY":0.00020496,"INCLINATION":51.8986,"RA_OF_ASC_NODE":139.101,"ARG_OF_PERICENTER":8.2844,"MEAN_ANOMALY":11.9684,"EPHEMERIS_TYPE":0,"CLASSIFICATION_TYPE":"U","NORAD_CAT_ID":65966,"ELEMENT_SET_NO":999,"REV_AT_EPOCH":477,"BSTAR":-0.0060979985,"MEAN_MOTION_DOT":-0.00055384,"MEAN_MOTION_DDOT":0},{"OBJECT_NAME":"KUIPER-00146","OBJECT_ID":"2025-228W","EPOCH":"2026-02-01T17:24:44.960832","MEAN_MOTION":14.83833731,"ECCENTRICITY":0.00010496,"INCLINATION":51.9026,"RA_OF_ASC_NODE":142.2706,"ARG_OF_PERICENTER":78.728,"MEAN_ANOMALY":281.3802,"EPHEMERIS_TYPE":0,"CLASSIFICATION_TYPE":"U","NORAD_CAT_ID":65967,"ELEMENT_SET_NO":999,"REV_AT_EPOCH":1814,"BSTAR":-0.0042201906,"MEAN_MOTION_DOT":-0.00035376,"MEAN_MOTION_DDOT":0},{"OBJECT_NAME":"KUIPER-00149","OBJECT_ID":"2025-228X","EPOCH":"2026-02-01T22:00:01.999584","MEAN_MOTION":14.95994052,"ECCENTRICITY":0.00044172,"INCLINATION":51.894,"RA_OF_ASC_NODE":136.9523,"ARG_OF_PERICENTER":176.0317,"MEAN_ANOMALY":318.1586,"EPHEMERIS_TYPE":0,"CLASSIFICATION_TYPE":"U","NORAD_CAT_ID":65968,"ELEMENT_SET_NO":999,"REV_AT_EPOCH":515,"BSTAR":-0.0069392947,"MEAN_MOTION_DOT":-0.0007805,"MEAN_MOTION_DDOT":0},{"OBJECT_NAME":"KUIPER-00154","OBJECT_ID":"2025-228Y","EPOCH":"2026-02-01T22:00:01.999584","MEAN_MOTION":15.0727586,"ECCENTRICITY":0.00065202,"INCLINATION":51.8998,"RA_OF_ASC_NODE":135.4056,"ARG_OF_PERICENTER":192.8145,"MEAN_ANOMALY":342.3397,"EPHEMERIS_TYPE":0,"CLASSIFICATION_TYPE":"U","NORAD_CAT_ID":65969,"ELEMENT_SET_NO":999,"REV_AT_EPOCH":592,"BSTAR":-0.0092435507,"MEAN_MOTION_DOT":-0.00138739,"MEAN_MOTION_DDOT":0},{"OBJECT_NAME":"KUIPER-00157","OBJECT_ID":"2025-228Z","EPOCH":"2026-02-01T22:00:01.999584","MEAN_MOTION":14.9669615,"ECCENTRICITY":9.148e-5,"INCLINATION":51.8934,"RA_OF_ASC_NODE":137.1983,"ARG_OF_PERICENTER":264.8684,"MEAN_ANOMALY":13.1984,"EPHEMERIS_TYPE":0,"CLASSIFICATION_TYPE":"U","NORAD_CAT_ID":65970,"ELEMENT_SET_NO":999,"REV_AT_EPOCH":588,"BSTAR":-0.019201686,"MEAN_MOTION_DOT":-0.00215132,"MEAN_MOTION_DDOT":0},{"OBJECT_NAME":"KUIPER-00144","OBJECT_ID":"2025-301A","EPOCH":"2026-02-01T20:15:51.433056","MEAN_MOTION":15.37061186,"ECCENTRICITY":0.00065182,"INCLINATION":51.868,"RA_OF_ASC_NODE":238.4995,"ARG_OF_PERICENTER":248.3306,"MEAN_ANOMALY":111.6987,"EPHEMERIS_TYPE":0,"CLASSIFICATION_TYPE":"U","NORAD_CAT_ID":67133,"ELEMENT_SET_NO":999,"REV_AT_EPOCH":822,"BSTAR":0.00078939006,"MEAN_MOTION_DOT":0.00028812,"MEAN_MOTION_DDOT":0},{"OBJECT_NAME":"KUIPER-00164","OBJECT_ID":"2025-301B","EPOCH":"2026-02-01T22:57:54.267840","MEAN_MOTION":15.37457838,"ECCENTRICITY":0.00023555,"INCLINATION":51.87,"RA_OF_ASC_NODE":237.7637,"ARG_OF_PERICENTER":239.3614,"MEAN_ANOMALY":120.714,"EPHEMERIS_TYPE":0,"CLASSIFICATION_TYPE":"U","NORAD_CAT_ID":67134,"ELEMENT_SET_NO":999,"REV_AT_EPOCH":842,"BSTAR":0.0010277725,"MEAN_MOTION_DOT":0.00038148,"MEAN_MOTION_DDOT":0},{"OBJECT_NAME":"KUIPER-00175","OBJECT_ID":"2025-301C","EPOCH":"2026-02-01T22:35:15.490464","MEAN_MOTION":15.37912324,"ECCENTRICITY":0.00021774,"INCLINATION":51.8702,"RA_OF_ASC_NODE":237.6624,"ARG_OF_PERICENTER":168.9268,"MEAN_ANOMALY":191.1767,"EPHEMERIS_TYPE":0,"CLASSIFICATION_TYPE":"U","NORAD_CAT_ID":67135,"ELEMENT_SET_NO":999,"REV_AT_EPOCH":831,"BSTAR":0.00068638395,"MEAN_MOTION_DOT":0.00025684,"MEAN_MOTION_DDOT":0},{"OBJECT_NAME":"KUIPER-00179","OBJECT_ID":"2025-301D","EPOCH":"2026-02-01T22:53:30.530112","MEAN_MOTION":15.37380216,"ECCENTRICITY":0.00022038,"INCLINATION":51.8705,"RA_OF_ASC_NODE":237.7448,"ARG_OF_PERICENTER":202.1485,"MEAN_ANOMALY":157.9407,"EPHEMERIS_TYPE":0,"CLASSIFICATION_TYPE":"U","NORAD_CAT_ID":67136,"ELEMENT_SET_NO":999,"REV_AT_EPOCH":842,"BSTAR":0.0003922718,"MEAN_MOTION_DOT":0.00014235,"MEAN_MOTION_DDOT":0},{"OBJECT_NAME":"KUIPER-00181","OBJECT_ID":"2025-301E","EPOCH":"2026-02-01T22:00:01.999584","MEAN_MOTION":15.187619,"ECCENTRICITY":0.00131186,"INCLINATION":51.8722,"RA_OF_ASC_NODE":239.1959,"ARG_OF_PERICENTER":278.8327,"MEAN_ANOMALY":280.8251,"EPHEMERIS_TYPE":0,"CLASSIFICATION_TYPE":"U","NORAD_CAT_ID":67137,"ELEMENT_SET_NO":999,"REV_AT_EPOCH":588,"BSTAR":-0.10152321,"MEAN_MOTION_DOT":-0.01942919,"MEAN_MOTION_DDOT":0},{"OBJECT_NAME":"KUIPER-00183","OBJECT_ID":"2025-301F","EPOCH":"2026-02-01T21:14:42.499104","MEAN_MOTION":15.35882843,"ECCENTRICITY":0.001252,"INCLINATION":51.8603,"RA_OF_ASC_NODE":238.7282,"ARG_OF_PERICENTER":275.4016,"MEAN_ANOMALY":84.5541,"EPHEMERIS_TYPE":0,"CLASSIFICATION_TYPE":"U","NORAD_CAT_ID":67138,"ELEMENT_SET_NO":999,"REV_AT_EPOCH":839,"BSTAR":0.00071048421,"MEAN_MOTION_DOT":0.00024949,"MEAN_MOTION_DDOT":0},{"OBJECT_NAME":"KUIPER-00184","OBJECT_ID":"2025-301G","EPOCH":"2026-02-01T22:34:18.240960","MEAN_MOTION":15.36135796,"ECCENTRICITY":0.00103625,"INCLINATION":51.861,"RA_OF_ASC_NODE":238.3569,"ARG_OF_PERICENTER":274.9501,"MEAN_ANOMALY":85.0302,"EPHEMERIS_TYPE":0,"CLASSIFICATION_TYPE":"U","NORAD_CAT_ID":67139,"ELEMENT_SET_NO":999,"REV_AT_EPOCH":851,"BSTAR":0.00071120591,"MEAN_MOTION_DOT":0.00025162,"MEAN_MOTION_DDOT":0},{"OBJECT_NAME":"KUIPER-00186","OBJECT_ID":"2025-301H","EPOCH":"2026-02-01T22:00:01.999584","MEAN_MOTION":15.17717123,"ECCENTRICITY":0.00069484,"INCLINATION":51.878,"RA_OF_ASC_NODE":239.1482,"ARG_OF_PERICENTER":258.9743,"MEAN_ANOMALY":28.158,"EPHEMERIS_TYPE":0,"CLASSIFICATION_TYPE":"U","NORAD_CAT_ID":67140,"ELEMENT_SET_NO":999,"REV_AT_EPOCH":581,"BSTAR":-0.053993563,"MEAN_MOTION_DOT":-0.01014945,"MEAN_MOTION_DDOT":0}]
